{"type":"FeatureCollection","features":[{"type":"Feature","id":"AE.U15A","properties":{"code":"U15A","name":"North Rim, AZ, USA","instrumentType":"","source":"UU","network":"AE","commType":"DIG","location":"","intensity":null,"intensity_flag":"","pga":null,"pgv":null,"distance":479.36,"channels":[{"name":"--.HHN","amplitudes":[{"name":"pga","value":0.0047,"units":"%g","flag":"I"},{"name":"pgv","value":0.0126,"units":"cm/s","flag":"I"},{"name":"psa03","value":0.0104,"units":"%g","flag":"I"},{"name":"psa10","value":0.0114,"units":"%g","flag":"I"},{"name":"psa30","value":0.0046,"units":"%g","flag":"I"}]}]},"geometry":{"type":"Point","coordinates":[-112.29150,36.42800]}},{"type":"Feature","id":"AE.W13A","properties":{"code":"W13A","name":"Hualapai Mountain Park, Kingman, AZ, USA","instrumentType":"","source":"UU","network":"AE","commType":"DIG","location":"","intensity":null,"intensity_flag":"","pga":null,"pgv":null,"distance":646.40,"channels":[{"name":"--.HHE","amplitudes":[{"name":"pga","value":0.0007,"units":"%g","flag":"I"},{"name":"pgv","value":0.0014,"units":"cm/s","flag":"I"},{"name":"psa03","value":0.0017,"units":"%g","flag":"I"},{"name":"psa10","value":0.0018,"units":"%g","flag":"I"},{"name":"psa30","value":0.0008,"units":"%g","flag":"I"}]},{"name":"--.HHN","amplitudes":[{"name":"pga","value":0.0009,"units":"%g","flag":"I"},{"name":"pgv","value":0.0016,"units":"cm/s","flag":"I"},{"name":"psa03","value":0.0022,"units":"%g","flag":"I"},{"name":"psa10","value":0.0020,"units":"%g","flag":"I"},{"name":"psa30","value":0.0008,"units":"%g","flag":"I"}]}]},"geometry":{"type":"Point","coordinates":[-113.88540,35.09900]}},{"type":"Feature","id":"IE.COMI","properties":{"code":"COMI","name":"Craters of the Moon, Idaho, USA","instrumentType":"","source":"UU","network":"IE","commType":"DIG","location":"","intensity":null,"intensity_flag":"","pga":null,"pgv":null,"distance":324.65,"channels":[{"name":"--.HHN","amplitudes":[{"name":"pga","value":0.0162,"units":"%g","flag":"I"},{"name":"pgv","value":0.0298,"units":"cm/s","flag":"I"},{"name":"psa03","value":0.0433,"units":"%g","flag":"I"},{"name":"psa10","value":0.0377,"units":"%g","flag":"I"},{"name":"psa30","value":0.0167,"units":"%g","flag":"I"}]},{"name":"--.HHE","amplitudes":[{"name":"pga","value":0.0182,"units":"%g","flag":"I"},{"name":"pgv","value":0.0412,"units":"cm/s","flag":"I"},{"name":"psa03","value":0.0464,"units":"%g","flag":"I"},{"name":"psa10","value":0.0349,"units":"%g","flag":"I"},{"name":"psa30","value":0.0204,"units":"%g","flag":"I"}]}]},"geometry":{"type":"Point","coordinates":[-113.59383,43.46183]}},{"type":"Feature","id":"IE.DVCI","properties":{"code":"DVCI","name":"Devils Canyon","instrumentType":"","source":"UU","network":"IE","commType":"DIG","location":"","intensity":1.0,"intensity_flag":"","pga":0.0273,"pgv":0.0428,"distance":432.88,"channels":[{"name":"--.HHE","amplitudes":[{"name":"pga","value":0.0213,"units":"%g","flag":"0"},{"name":"pgv","value":0.0237,"units":"cm/s","flag":"0"},{"name":"psa03","value":0.0390,"units":"%g","flag":"0"},{"name":"psa10","value":0.0863,"units":"%g","flag":"0"},{"name":"psa30","value":0.0090,"units":"%g","flag":"0"}]},{"name":"--.HHN","amplitudes":[{"name":"pga","value":0.0273,"units":"%g","flag":"0"},{"name":"pgv","value":0.0428,"units":"cm/s","flag":"0"},{"name":"psa03","value":0.0467,"units":"%g","flag":"0"},{"name":"psa10","value":0.0749,"units":"%g","flag":"0"},{"name":"psa30","value":0.0104,"units":"%g","flag":"0"}]}]},"geometry":{"type":"Point","coordinates":[-114.03858,44.38309]}},{"type":"Feature","id":"NN.PIO","properties":{"code":"PIO","name":"Pioche, NV, USA - NN reactivation","instrumentType":"","source":"UU","network":"NN","commType":"DIG","location":"","intensity":1.0,"intensity_flag":"","pga":0.0574,"pgv":0.0864,"distance":372.79,"channels":[{"name":"--.HHN","amplitudes":[{"name":"pga","value":0.0574,"units":"%g","flag":"0"},{"name":"pgv","value":0.0804,"units":"cm/s","flag":"0"},{"name":"psa03","value":0.1055,"units":"%g","flag":"0"},{"name":"psa10","value":0.1442,"units":"%g","flag":"0"},{"name":"psa30","value":0.0269,"units":"%g","flag":"0"}]},{"name":"--.HHE","amplitudes":[{"name":"pga","value":0.0501,"units":"%g","flag":"0"},{"name":"pgv","value":0.0864,"units":"cm/s","flag":"0"},{"name":"psa03","value":0.1145,"units":"%g","flag":"0"},{"name":"psa10","value":0.2113,"units":"%g","flag":"0"},{"name":"psa30","value":0.0253,"units":"%g","flag":"0"}]}]},"geometry":{"type":"Point","coordinates":[-114.49140,37.94720]}},{"type":"Feature","id":"NN.V12A","properties":{"code":"V12A","name":"Nelson, NV, USA - NN reactivation","instrumentType":"","source":"UU","network":"NN","commType":"DIG","location":"","intensity":1.0,"intensity_flag":"","pga":0.0052,"pgv":0.0174,"distance":607.12,"channels":[{"name":"--.HHE","amplitudes":[{"name":"pga","value":0.0052,"units":"%g","flag":"0"},{"name":"pgv","value":0.0174,"units":"cm/s","flag":"0"},{"name":"psa03","value":0.0069,"units":"%g","flag":"0"},{"name":"psa10","value":0.0096,"units":"%g","flag":"0"},{"name":"psa30","value":0.0067,"units":"%g","flag":"0"}]},{"name":"--.HHN","amplitudes":[{"name":"pga","value":0.0049,"units":"%g","flag":"0"},{"name":"pgv","value":0.0121,"units":"cm/s","flag":"0"},{"name":"psa03","value":0.0075,"units":"%g","flag":"0"},{"name":"psa10","value":0.0158,"units":"%g","flag":"0"},{"name":"psa30","value":0.0065,"units":"%g","flag":"0"}]}]},"geometry":{"type":"Point","coordinates":[-114.85110,35.72660]}},{"type":"Feature","id":"NP.7212","properties":{"code":"7212","name":"Annex Building, Weber State University, Ogden, UT","instrumentType":"","source":"UU","network":"NP","commType":"DIG","location":"","intensity":4.5,"intensity_flag":"","pga":4.2836,"pgv":2.3579,"distance":50.30,"channels":[{"name":"01.HNE","amplitudes":[{"name":"pga","value":2.0806,"units":"%g","flag":"0"},{"name":"pgv","value":1.0749,"units":"cm/s","flag":"0"},{"name":"psa03","value":6.2011,"units":"%g","flag":"0"},{"name":"psa10","value":1.2585,"units":"%g","flag":"0"},{"name":"psa30","value":0.0789,"units":"%g","flag":"0"}]},{"name":"01.HNN","amplitudes":[{"name":"pga","value":4.2836,"units":"%g","flag":"0"},{"name":"pgv","value":2.3579,"units":"cm/s","flag":"0"},{"name":"psa03","value":10.4702,"units":"%g","flag":"0"},{"name":"psa10","value":2.6202,"units":"%g","flag":"0"},{"name":"psa30","value":0.2395,"units":"%g","flag":"0"}]}],"imagemap":{"shape":"circle","coordinates":[324,201,5]}},"geometry":{"type":"Point","coordinates":[-111.94167,41.19583]}},{"type":"Feature","id":"NP.7224","properties":{"code":"7224","name":"Southern Utah University, Cedar City, UT, USA","instrumentType":"","source":"UU","network":"NP","commType":"DIG","location":"","intensity":1.0,"intensity_flag":"","pga":0.0413,"pgv":0.0534,"distance":351.17,"channels":[{"name":"01.HNE","amplitudes":[{"name":"pga","value":0.0413,"units":"%g","flag":"0"},{"name":"pgv","value":0.0485,"units":"cm/s","flag":"0"},{"name":"psa03","value":0.1183,"units":"%g","flag":"0"},{"name":"psa10","value":0.0647,"units":"%g","flag":"0"},{"name":"psa30","value":0.0295,"units":"%g","flag":"0"}]},{"name":"01.HNN","amplitudes":[{"name":"pga","value":0.0375,"units":"%g","flag":"0"},{"name":"pgv","value":0.0534,"units":"cm/s","flag":"0"},{"name":"psa03","value":0.0983,"units":"%g","flag":"0"},{"name":"psa10","value":0.0746,"units":"%g","flag":"0"},{"name":"psa30","value":0.0173,"units":"%g","flag":"0"}]}]},"geometry":{"type":"Point","coordinates":[-113.07149,37.67250]}},{"type":"Feature","id":"NP.7225","properties":{"code":"7225","name":"City Maintenance Yard, Beaver, UT, USA","instrumentType":"","source":"UU","network":"NP","commType":"DIG","location":"","intensity":1.0,"intensity_flag":"","pga":0.0548,"pgv":0.1522,"distance":276.92,"channels":[{"name":"01.HNE","amplitudes":[{"name":"pga","value":0.0548,"units":"%g","flag":"0"},{"name":"pgv","value":0.1522,"units":"cm/s","flag":"0"},{"name":"psa03","value":0.0979,"units":"%g","flag":"0"},{"name":"psa10","value":0.1175,"units":"%g","flag":"0"},{"name":"psa30","value":0.0875,"units":"%g","flag":"0"}]},{"name":"01.HNN","amplitudes":[{"name":"pga","value":0.0546,"units":"%g","flag":"0"},{"name":"pgv","value":0.1348,"units":"cm/s","flag":"0"},{"name":"psa03","value":0.0952,"units":"%g","flag":"0"},{"name":"psa10","value":0.0907,"units":"%g","flag":"0"},{"name":"psa30","value":0.1119,"units":"%g","flag":"0"}]}]},"geometry":{"type":"Point","coordinates":[-112.63873,38.28345]}},{"type":"Feature","id":"NP.7232","properties":{"code":"7232","name":"City Park and Recreation Office, Tremonton, UT, U","instrumentType":"","source":"UU","network":"NP","commType":"DIG","location":"","intensity":3.2,"intensity_flag":"","pga":1.0851,"pgv":0.8221,"distance":106.69,"channels":[{"name":"01.HNE","amplitudes":[{"name":"pga","value":0.8744,"units":"%g","flag":"0"},{"name":"pgv","value":0.5930,"units":"cm/s","flag":"0"},{"name":"psa03","value":3.0906,"units":"%g","flag":"0"},{"name":"psa10","value":0.8834,"units":"%g","flag":"0"},{"name":"psa30","value":0.0893,"units":"%g","flag":"0"}]},{"name":"01.HNN","amplitudes":[{"name":"pga","value":1.0851,"units":"%g","flag":"0"},{"name":"pgv","value":0.8221,"units":"cm/s","flag":"0"},{"name":"psa03","value":2.3819,"units":"%g","flag":"0"},{"name":"psa10","value":1.4236,"units":"%g","flag":"0"},{"name":"psa30","value":0.0586,"units":"%g","flag":"0"}]}],"imagemap":{"shape":"circle","coordinates":[292,108,5]}},"geometry":{"type":"Point","coordinates":[-112.18183,41.71880]}},{"type":"Feature","id":"RE.PV05","properties":{"code":"PV05","name":"E. Island Mesa, Paradox Valley, CO, USA","instrumentType":"","source":"UU","network":"RE","commType":"DIG","location":"","intensity":1.0,"intensity_flag":"","pga":0.0577,"pgv":0.0888,"distance":392.09,"channels":[{"name":"--.HHN","amplitudes":[{"name":"pga","value":0.0398,"units":"%g","flag":"0"},{"name":"pgv","value":0.0525,"units":"cm/s","flag":"0"},{"name":"psa03","value":0.0730,"units":"%g","flag":"0"},{"name":"psa10","value":0.0700,"units":"%g","flag":"0"},{"name":"psa30","value":0.0210,"units":"%g","flag":"0"}]},{"name":"--.HHE","amplitudes":[{"name":"pga","value":0.0577,"units":"%g","flag":"0"},{"name":"pgv","value":0.0888,"units":"cm/s","flag":"0"},{"name":"psa03","value":0.0862,"units":"%g","flag":"0"},{"name":"psa10","value":0.0853,"units":"%g","flag":"0"},{"name":"psa30","value":0.0363,"units":"%g","flag":"0"}]}]},"geometry":{"type":"Point","coordinates":[-108.96813,38.14787]}},{"type":"Feature","id":"RE.PV11","properties":{"code":"PV11","name":"Davis Mesa, Paradox Valley, CO, USA","instrumentType":"","source":"UU","network":"RE","commType":"DIG","location":"","intensity":1.4,"intensity_flag":"","pga":null,"pgv":null,"distance":385.48,"channels":[{"name":"--.HHE","amplitudes":[{"name":"pga","value":0.1303,"units":"%g","flag":"T"},{"name":"pgv","value":0.2021,"units":"cm/s","flag":"T"},{"name":"psa03","value":0.3266,"units":"%g","flag":"0"},{"name":"psa10","value":0.2485,"units":"%g","flag":"0"},{"name":"psa30","value":0.0658,"units":"%g","flag":"0"}]},{"name":"--.HHN","amplitudes":[{"name":"pga","value":0.1484,"units":"%g","flag":"T"},{"name":"pgv","value":0.2975,"units":"cm/s","flag":"T"},{"name":"psa03","value":0.3606,"units":"%g","flag":"0"},{"name":"psa10","value":0.3775,"units":"%g","flag":"0"},{"name":"psa30","value":0.1017,"units":"%g","flag":"0"}]}]},"geometry":{"type":"Point","coordinates":[-108.87266,38.29891]}},{"type":"Feature","id":"RE.PV15","properties":{"code":"PV15","name":"Pinto Mesa, Paradox Valley, CO, USA","instrumentType":"","source":"UU","network":"RE","commType":"DIG","location":"","intensity":1.0,"intensity_flag":"","pga":0.0628,"pgv":0.0780,"distance":406.87,"channels":[{"name":"--.HHE","amplitudes":[{"name":"pga","value":0.0628,"units":"%g","flag":"0"},{"name":"pgv","value":0.0765,"units":"cm/s","flag":"0"},{"name":"psa03","value":0.1337,"units":"%g","flag":"0"},{"name":"psa10","value":0.0924,"units":"%g","flag":"0"},{"name":"psa30","value":0.0397,"units":"%g","flag":"0"}]},{"name":"--.HHN","amplitudes":[{"name":"pga","value":0.0616,"units":"%g","flag":"0"},{"name":"pgv","value":0.0780,"units":"cm/s","flag":"0"},{"name":"psa03","value":0.1242,"units":"%g","flag":"0"},{"name":"psa10","value":0.1266,"units":"%g","flag":"0"},{"name":"psa30","value":0.0431,"units":"%g","flag":"0"}]}]},"geometry":{"type":"Point","coordinates":[-108.48006,38.34154]}},{"type":"Feature","id":"RE.PV21","properties":{"code":"PV21","name":"Cone Mountain, Paradox Valley, CO, USA","instrumentType":"","source":"UU","network":"RE","commType":"DIG","location":"","intensity":null,"intensity_flag":"","pga":null,"pgv":null,"distance":358.66,"channels":[{"name":"--.HHN","amplitudes":[{"name":"pga","value":0.1254,"units":"%g","flag":"I"},{"name":"pgv","value":0.1564,"units":"cm/s","flag":"I"},{"name":"psa03","value":0.3076,"units":"%g","flag":"I"},{"name":"psa10","value":0.2878,"units":"%g","flag":"I"},{"name":"psa30","value":0.0214,"units":"%g","flag":"I"}]},{"name":"--.HHE","amplitudes":[{"name":"pga","value":0.0739,"units":"%g","flag":"I"},{"name":"pgv","value":0.0976,"units":"cm/s","flag":"I"},{"name":"psa03","value":0.2781,"units":"%g","flag":"I"},{"name":"psa10","value":0.1139,"units":"%g","flag":"I"},{"name":"psa30","value":0.0180,"units":"%g","flag":"I"}]}]},"geometry":{"type":"Point","coordinates":[-108.97492,38.56120]}},{"type":"Feature","id":"UU.ALP","properties":{"code":"ALP","name":"Alpine Fire Station, UT, USA","instrumentType":"","source":"UU","network":"UU","commType":"DIG","location":"","intensity":4.2,"intensity_flag":"","pga":2.8883,"pgv":0.7930,"distance":41.52,"channels":[{"name":"01.ENN","amplitudes":[{"name":"pga","value":2.8883,"units":"%g","flag":"0"},{"name":"pgv","value":0.7930,"units":"cm/s","flag":"0"},{"name":"psa03","value":5.6964,"units":"%g","flag":"0"},{"name":"psa10","value":0.9482,"units":"%g","flag":"0"},{"name":"psa30","value":0.1288,"units":"%g","flag":"0"}]},{"name":"01.ENE","amplitudes":[{"name":"pga","value":1.6788,"units":"%g","flag":"0"},{"name":"pgv","value":0.7735,"units":"cm/s","flag":"0"},{"name":"psa03","value":3.6460,"units":"%g","flag":"0"},{"name":"psa10","value":0.9611,"units":"%g","flag":"0"},{"name":"psa30","value":0.1945,"units":"%g","flag":"0"}]}],"imagemap":{"shape":"circle","coordinates":[346,331,5]}},"geometry":{"type":"Point","coordinates":[-111.77690,40.45442]}},{"type":"Feature","id":"UU.ALT","properties":{"code":"ALT","name":"Alta City Offices, UT, USA","instrumentType":"","source":"UU","network":"UU","commType":"DIG","location":"","intensity":3.2,"intensity_flag":"","pga":1.0651,"pgv":0.5779,"distance":41.14,"channels":[{"name":"01.ENE","amplitudes":[{"name":"pga","value":1.0651,"units":"%g","flag":"0"},{"name":"pgv","value":0.5779,"units":"cm/s","flag":"0"},{"name":"psa03","value":1.7051,"units":"%g","flag":"0"},{"name":"psa10","value":0.5804,"units":"%g","flag":"0"},{"name":"psa30","value":0.1064,"units":"%g","flag":"0"}]},{"name":"01.ENN","amplitudes":[{"name":"pga","value":0.9733,"units":"%g","flag":"0"},{"name":"pgv","value":0.5380,"units":"cm/s","flag":"0"},{"name":"psa03","value":1.2694,"units":"%g","flag":"0"},{"name":"psa10","value":0.2462,"units":"%g","flag":"0"},{"name":"psa30","value":0.0788,"units":"%g","flag":"0"}]}],"imagemap":{"shape":"circle","coordinates":[365,307,5]}},"geometry":{"type":"Point","coordinates":[-111.63750,40.59028]}},{"type":"Feature","id":"UU.AMF","properties":{"code":"AMF","name":"American Fork, UT, USA","instrumentType":"","source":"UU","network":"UU","commType":"DIG","location":"","intensity":3.9,"intensity_flag":"","pga":2.1057,"pgv":1.0840,"distance":45.60,"channels":[{"name":"01.ENE","amplitudes":[{"name":"pga","value":1.5417,"units":"%g","flag":"0"},{"name":"pgv","value":0.9273,"units":"cm/s","flag":"0"},{"name":"psa03","value":3.9381,"units":"%g","flag":"0"},{"name":"psa10","value":1.0904,"units":"%g","flag":"0"},{"name":"psa30","value":0.1904,"units":"%g","flag":"0"}]},{"name":"01.ENN","amplitudes":[{"name":"pga","value":2.1057,"units":"%g","flag":"0"},{"name":"pgv","value":1.0840,"units":"cm/s","flag":"0"},{"name":"psa03","value":6.7540,"units":"%g","flag":"0"},{"name":"psa10","value":1.5397,"units":"%g","flag":"0"},{"name":"psa30","value":0.3182,"units":"%g","flag":"0"}]}],"imagemap":{"shape":"circle","coordinates":[345,340,5]}},"geometry":{"type":"Point","coordinates":[-111.78802,40.40199]}},{"type":"Feature","id":"UU.AVE","properties":{"code":"AVE","name":"Avenues, Salt Lake City Cemetery, UT, USA","instrumentType":"","source":"UU","network":"UU","commType":"DIG","location":"","intensity":4.7,"intensity_flag":"","pga":5.0305,"pgv":5.8206,"distance":20.48,"channels":[{"name":"01.ENN","amplitudes":[{"name":"pga","value":2.7550,"units":"%g","flag":"0"},{"name":"pgv","value":1.9652,"units":"cm/s","flag":"0"},{"name":"psa03","value":5.8769,"units":"%g","flag":"0"},{"name":"psa10","value":1.9657,"units":"%g","flag":"0"},{"name":"psa30","value":0.6121,"units":"%g","flag":"0"}]},{"name":"01.ENE","amplitudes":[{"name":"pga","value":5.0305,"units":"%g","flag":"0"},{"name":"pgv","value":5.8206,"units":"cm/s","flag":"0"},{"name":"psa03","value":7.7424,"units":"%g","flag":"0"},{"name":"psa10","value":7.9735,"units":"%g","flag":"0"},{"name":"psa30","value":1.0919,"units":"%g","flag":"0"}]}],"imagemap":{"shape":"circle","coordinates":[335,275,5]}},"geometry":{"type":"Point","coordinates":[-111.86278,40.77444]}},{"type":"Feature","id":"UU.BCE","properties":{"code":"BCE","name":"Book Cliffs East, UT, USA","instrumentType":"","source":"UU","network":"UU","commType":"DIG","location":"","intensity":1.4,"intensity_flag":"","pga":0.1509,"pgv":0.2252,"distance":188.54,"channels":[{"name":"01.ENN","amplitudes":[{"name":"pga","value":0.1509,"units":"%g","flag":"0"},{"name":"pgv","value":0.2252,"units":"cm/s","flag":"0"},{"name":"psa03","value":0.4892,"units":"%g","flag":"0"},{"name":"psa10","value":0.2883,"units":"%g","flag":"0"},{"name":"psa30","value":0.0484,"units":"%g","flag":"0"}]},{"name":"01.ENE","amplitudes":[{"name":"pga","value":0.1387,"units":"%g","flag":"0"},{"name":"pgv","value":0.2195,"units":"cm/s","flag":"0"},{"name":"psa03","value":0.3019,"units":"%g","flag":"0"},{"name":"psa10","value":0.2852,"units":"%g","flag":"0"},{"name":"psa30","value":0.0602,"units":"%g","flag":"0"}]}],"imagemap":{"shape":"circle","coordinates":[529,477,5]}},"geometry":{"type":"Point","coordinates":[-110.40840,39.61310]}},{"type":"Feature","id":"UU.BCS","properties":{"code":"BCS","name":"Brigham City Shop, UT, USA","instrumentType":"","source":"UU","network":"UU","commType":"DIG","location":"","intensity":4.5,"intensity_flag":"","pga":4.1603,"pgv":2.4383,"distance":83.60,"channels":[{"name":"01.ENE","amplitudes":[{"name":"pga","value":4.1603,"units":"%g","flag":"0"},{"name":"pgv","value":2.4383,"units":"cm/s","flag":"0"},{"name":"psa03","value":10.8340,"units":"%g","flag":"0"},{"name":"psa10","value":2.3431,"units":"%g","flag":"0"},{"name":"psa30","value":0.1944,"units":"%g","flag":"0"}]},{"name":"01.ENN","amplitudes":[{"name":"pga","value":3.0107,"units":"%g","flag":"0"},{"name":"pgv","value":2.0971,"units":"cm/s","flag":"0"},{"name":"psa03","value":11.1222,"units":"%g","flag":"0"},{"name":"psa10","value":2.0732,"units":"%g","flag":"0"},{"name":"psa30","value":0.2402,"units":"%g","flag":"0"}]}],"imagemap":{"shape":"circle","coordinates":[312,144,5]}},"geometry":{"type":"Point","coordinates":[-112.03300,41.51180]}},{"type":"Feature","id":"UU.BCU","properties":{"code":"BCU","name":"Brigham City, UT, USA","instrumentType":"","source":"UU","network":"UU","commType":"DIG","location":"","intensity":2.8,"intensity_flag":"","pga":0.6920,"pgv":0.6785,"distance":83.96,"channels":[{"name":"01.ENE","amplitudes":[{"name":"pga","value":0.4342,"units":"%g","flag":"0"},{"name":"pgv","value":0.3470,"units":"cm/s","flag":"0"},{"name":"psa03","value":1.3648,"units":"%g","flag":"0"},{"name":"psa10","value":0.3499,"units":"%g","flag":"0"},{"name":"psa30","value":0.0458,"units"